0 DELTA 1 DEB
1 10824U 76077BU  13282.77306551  .00005607  00000-0  11024-1 0  3038
2 10824 102.0149 216.3814 0084590 332.7645 081.2225 13.34884384752038
0 DELTA 1 DEB
1 10824U 76077BU  13283.73607163  .00006226  00000-0  10000-3 0  3042
2 10824 102.0122 217.5096 0084836 330.1594 029.5167 13.34890671752162
0 DELTA 1 DEB
1 10824U 76077BU  13286.38368017  .00004773  00000-0  94017-2 0  3053
2 10824 102.0137 220.6132 0083499 325.9464 151.4266 13.34922300752515
0 DELTA 1 DEB
1 10824U 76077BU  13288.40800525  .00006868  00000-0  13473-1 0  3067
2 10824 102.0138 222.9852 0082940 322.0816 159.2381 13.34945032752789
0 DELTA 1 DEB
1 10824U 76077BU  13288.76869172  .00006146  00000-0  12070-1 0  3093
2 10824 102.0138 223.4079 0082804 321.4299 092.4832 13.34948011752838
0 DELTA 1 DEB
1 10824U 76077BU  13290.78083050  .00006553  00000-0  10000-3 0  3085
2 10824 102.0119 225.7646 0082882 316.9116 042.5961 13.34969557753103
0 DELTA 1 DEB
1 10824U 76077BU  13290.79233603  .00005722  00000-0  11246-1 0  3108
2 10824 102.0141 225.7794 0082188 317.4860 097.3006 13.34969923753108
0 DELTA 1 DEB
1 10824U 76077BU  13293.04199312  .00005687  00000-0  11179-1 0  3113
2 10824 102.0138 228.4160 0081191 313.1461 108.4027 13.34995369753407
0 DELTA 1 DEB
1 10824U 76077BU  13295.37702100  .00006338  00000-0  12446-1 0  3129
2 10824 102.0130 231.1531 0080026 308.5657 170.0596 13.35023963753716
